STARLINK-35832          
1 66495U 25263L   26080.61361911  .00048685  00000+0  17656-2 0  9999
2 66495  43.0017 283.2579 0001455 252.6803 107.3890 15.27607913 20724
STARLINK-35909          
1 66496U 25263M   26080.57136342  .00039999  00000+0  14530-2 0  9999
2 66496  42.9990 283.7985 0002387 282.6146  77.4439 15.27628403 20719
STARLINK-35899          
1 66497U 25263N   26080.27641427  .00016712  00000+0  61527-3 0  9999
2 66497  43.0043 285.0221 0000402 293.1739  66.9071 15.27589767 20679
STARLINK-35907          
1 66498U 25263P   26080.63546583  .00031555  00000+0  11501-2 0  9995
2 66498  42.9995 283.4286 0001496 267.5938  92.4742 15.27613790 20726
STARLINK-35816          
1 66499U 25263Q   26079.92650949  .00025061  00000+0  91733-3 0  9999
2 66499  42.9989 287.5652 0001708 270.2377  89.8279 15.27572733 20610
STARLINK-35894          
1 66500U 25263R   26080.61827753  .00031751  00000+0  11574-2 0  9996
2 66500  43.0015 286.7599 0000753 271.0196  89.0569 15.27606377 20686
STARLINK-35897          
1 66501U 25263S   26080.62390846  .00028121  00000+0  10260-2 0  9994
2 66501  42.9999 283.3395 0001610 280.5394  79.5276 15.27628695 20722
STARLINK-35922          
1 66502U 25263T   26080.57777980  .00046244  00000+0  16778-2 0  9993
2 66502  43.0002 283.8471 0001651 244.4333 115.6348 15.27613210 20715
STARLINK-35917          
1 66503U 25263U   26080.56622673  .00037485  00000+0  13648-2 0  9991
2 66503  42.9990 283.7603 0001331 262.1071  97.9630 15.27578933 20715
STARLINK-35916          
1 66504U 25263V   26080.56960450  .00030041  00000+0  10952-2 0  9996
2 66504  42.9998 287.2783 0001183 217.5885 142.4884 15.27626195 20670
STARLINK-34766          
1 66505U 25263W   26080.59177697  .00032024  00000+0  11673-2 0  9997
2 66505  42.9979 283.0909 0001391 270.1466  89.9226 15.27605177 20723
STARLINK-34765          
1 66506U 25263X   26080.62132864  .00032904  00000+0  11987-2 0  9994
2 66506  43.0013 283.3113 0001292 221.7965 138.2788 15.27614016 20724
STARLINK-34767          
1 66507U 25263Y   26080.57393440  .00024165  00000+0  88371-3 0  9990
2 66507  42.9991 283.8217 0001385 269.5391  90.5302 15.27619489 20714
STARLINK-35608          
1 66508U 25263Z   26080.56236924  .00035823  00000+0  13032-2 0  9997
2 66508  42.9989 283.7342 0001799 294.4701  65.5963 15.27624945 20719
STARLINK-35598          
1 66509U 25263AA  26080.58550094  .00028290  00000+0  10326-2 0  9990
2 66509  42.9980 283.9073 0000759 281.9413  78.1354 15.27612462 20715
STARLINK-35600          
1 66510U 25263AB  26080.58166090  .00024962  00000+0  91237-3 0  9994
2 66510  42.9993 283.8780 0001301 266.2895  93.7808 15.27621959 20717
