[{"OBJECT_NAME":"STARLINK-35832","OBJECT_ID":"2025-263L","EPOCH":"2026-03-21T14:43:36.691104","MEAN_MOTION":15.27607913,"ECCENTRICITY":0.00014555,"INCLINATION":43.0017,"RA_OF_ASC_NODE":283.2579,"ARG_OF_PERICENTER":252.6803,"MEAN_ANOMALY":107.389,"EPHEMERIS_TYPE":0,"CLASSIFICATION_TYPE":"U","NORAD_CAT_ID":66495,"ELEMENT_SET_NO":999,"REV_AT_EPOCH":2072,"BSTAR":0.0017655677,"MEAN_MOTION_DOT":0.00048685,"MEAN_MOTION_DDOT":0},{"OBJECT_NAME":"STARLINK-35909","OBJECT_ID":"2025-263M","EPOCH":"2026-03-21T13:42:45.799488","MEAN_MOTION":15.27628403,"ECCENTRICITY":0.00023878,"INCLINATION":42.999,"RA_OF_ASC_NODE":283.7985,"ARG_OF_PERICENTER":282.6146,"MEAN_ANOMALY":77.4439,"EPHEMERIS_TYPE":0,"CLASSIFICATION_TYPE":"U","NORAD_CAT_ID":66496,"ELEMENT_SET_NO":999,"REV_AT_EPOCH":2071,"BSTAR":0.0014530028,"MEAN_MOTION_DOT":0.00039999,"MEAN_MOTION_DDOT":0},{"OBJECT_NAME":"STARLINK-35899","OBJECT_ID":"2025-263N","EPOCH":"2026-03-21T06:38:02.192928","MEAN_MOTION":15.27589767,"ECCENTRICITY":4.021e-5,"INCLINATION":43.0043,"RA_OF_ASC_NODE":285.0221,"ARG_OF_PERICENTER":293.1739,"MEAN_ANOMALY":66.9071,"EPHEMERIS_TYPE":0,"CLASSIFICATION_TYPE":"U","NORAD_CAT_ID":66497,"ELEMENT_SET_NO":999,"REV_AT_EPOCH":2067,"BSTAR":0.00061527488,"MEAN_MOTION_DOT":0.00016712,"MEAN_MOTION_DDOT":0},{"OBJECT_NAME":"STARLINK-35907","OBJECT_ID":"2025-263P","EPOCH":"2026-03-21T15:15:04.247712","MEAN_MOTION":15.2761379,"ECCENTRICITY":0.00014963,"INCLINATION":42.9995,"RA_OF_ASC_NODE":283.4286,"ARG_OF_PERICENTER":267.5938,"MEAN_ANOMALY":92.4742,"EPHEMERIS_TYPE":0,"CLASSIFICATION_TYPE":"U","NORAD_CAT_ID":66498,"ELEMENT_SET_NO":999,"REV_AT_EPOCH":2072,"BSTAR":0.0011501115,"MEAN_MOTION_DOT":0.00031555,"MEAN_MOTION_DDOT":0},{"OBJECT_NAME":"STARLINK-35816","OBJECT_ID":"2025-263Q","EPOCH":"2026-03-20T22:14:10.419936","MEAN_MOTION":15.27572733,"ECCENTRICITY":0.00017081,"INCLINATION":42.9989,"RA_OF_ASC_NODE":287.5652,"ARG_OF_PERICENTER":270.2377,"MEAN_ANOMALY":89.8279,"EPHEMERIS_TYPE":0,"CLASSIFICATION_TYPE":"U","NORAD_CAT_ID":66499,"ELEMENT_SET_NO":999,"REV_AT_EPOCH":2061,"BSTAR":0.00091732665,"MEAN_MOTION_DOT":0.00025061,"MEAN_MOTION_DDOT":0},{"OBJECT_NAME":"STARLINK-35894","OBJECT_ID":"2025-263R","EPOCH":"2026-03-21T14:50:19.178592","MEAN_MOTION":15.27606377,"ECCENTRICITY":7.539e-5,"INCLINATION":43.0015,"RA_OF_ASC_NODE":286.7599,"ARG_OF_PERICENTER":271.0196,"MEAN_ANOMALY":89.0569,"EPHEMERIS_TYPE":0,"CLASSIFICATION_TYPE":"U","NORAD_CAT_ID":66500,"ELEMENT_SET_NO":999,"REV_AT_EPOCH":2068,"BSTAR":0.0011574462,"MEAN_MOTION_DOT":0.00031751,"MEAN_MOTION_DDOT":0},{"OBJECT_NAME":"STARLINK-35897","OBJECT_ID":"2025-263S","EPOCH":"2026-03-21T14:58:25.690944","MEAN_MOTION":15.27628695,"ECCENTRICITY":0.00016108,"INCLINATION":42.9999,"RA_OF_ASC_NODE":283.3395,"ARG_OF_PERICENTER":280.5394,"MEAN_ANOMALY":79.5276,"EPHEMERIS_TYPE":0,"CLASSIFICATION_TYPE":"U","NORAD_CAT_ID":66501,"ELEMENT_SET_NO":999,"REV_AT_EPOCH":2072,"BSTAR":0.0010259824,"MEAN_MOTION_DOT":0.00028121,"MEAN_MOTION_DDOT":0},{"OBJECT_NAME":"STARLINK-35922","OBJECT_ID":"2025-263T","EPOCH":"2026-03-21T13:52:00.174720","MEAN_MOTION":15.2761321,"ECCENTRICITY":0.00016514,"INCLINATION":43.0002,"RA_OF_ASC_NODE":283.8471,"ARG_OF_PERICENTER":244.4333,"MEAN_ANOMALY":115.6348,"EPHEMERIS_TYPE":0,"CLASSIFICATION_TYPE":"U","NORAD_CAT_ID":66502,"ELEMENT_SET_NO":999,"REV_AT_EPOCH":2071,"BSTAR":0.0016777807,"MEAN_MOTION_DOT":0.00046244,"MEAN_MOTION_DDOT":0},{"OBJECT_NAME":"STARLINK-35917","OBJECT_ID":"2025-263U","EPOCH":"2026-03-21T13:35:21.989472","MEAN_MOTION":15.27578933,"ECCENTRICITY":0.00013312,"INCLINATION":42.999,"RA_OF_ASC_NODE":283.7603,"ARG_OF_PERICENTER":262.1071,"MEAN_ANOMALY":97.963,"EPHEMERIS_TYPE":0,"CLASSIFICATION_TYPE":"U","NORAD_CAT_ID":66503,"ELEMENT_SET_NO":999,"REV_AT_EPOCH":2071,"BSTAR":0.0013648392,"MEAN_MOTION_DOT":0.00037485,"MEAN_MOTION_DDOT":0},{"OBJECT_NAME":"STARLINK-35916","OBJECT_ID":"2025-263V","EPOCH":"2026-03-21T13:40:13.828800","MEAN_MOTION":15.27626195,"ECCENTRICITY":0.00011834,"INCLINATION":42.9998,"RA_OF_ASC_NODE":287.2783,"ARG_OF_PERICENTER":217.5885,"MEAN_ANOMALY":142.4884,"EPHEMERIS_TYPE":0,"CLASSIFICATION_TYPE":"U","NORAD_CAT_ID":66504,"ELEMENT_SET_NO":999,"REV_AT_EPOCH":2067,"BSTAR":0.0010952247,"MEAN_MOTION_DOT":0.00030041,"MEAN_MOTION_DDOT":0},{"OBJECT_NAME":"STARLINK-34766","OBJECT_ID":"2025-263W","EPOCH":"2026-03-21T14:12:09.530208","MEAN_MOTION":15.27605177,"ECCENTRICITY":0.00013913,"INCLINATION":42.9979,"RA_OF_ASC_NODE":283.0909,"ARG_OF_PERICENTER":270.1466,"MEAN_ANOMALY":89.9226,"EPHEMERIS_TYPE":0,"CLASSIFICATION_TYPE":"U","NORAD_CAT_ID":66505,"ELEMENT_SET_NO":999,"REV_AT_EPOCH":2072,"BSTAR":0.0011673032,"MEAN_MOTION_DOT":0.00032024,"MEAN_MOTION_DDOT":0},{"OBJECT_NAME":"STARLINK-34765","OBJECT_ID":"2025-263X","EPOCH":"2026-03-21T14:54:42.794496","MEAN_MOTION":15.27614016,"ECCENTRICITY":0.0001292,"INCLINATION":43.0013,"RA_OF_ASC_NODE":283.3113,"ARG_OF_PERICENTER":221.7965,"MEAN_ANOMALY":138.2788,"EPHEMERIS_TYPE":0,"CLASSIFICATION_TYPE":"U","NORAD_CAT_ID":66506,"ELEMENT_SET_NO":999,"REV_AT_EPOCH":2072,"BSTAR":0.0011986791,"MEAN_MOTION_DOT":0.00032904,"MEAN_MOTION_DDOT":0},{"OBJECT_NAME":"STARLINK-34767","OBJECT_ID":"2025-263Y","EPOCH":"2026-03-21T13:46:27.932160","MEAN_MOTION":15.27619489,"ECCENTRICITY":0.00013852,"INCLINATION":42.9991,"RA_OF_ASC_NODE":283.8217,"ARG_OF_PERICENTER":269.5391,"MEAN_ANOMALY":90.5302,"EPHEMERIS_TYPE":0,"CLASSIFICATION_TYPE":"U","NORAD_CAT_ID":66507,"ELEMENT_SET_NO":999,"REV_AT_EPOCH":2071,"BSTAR":0.0008837127,"MEAN_MOTION_DOT":0.00024165,"MEAN_MOTION_DDOT":0},{"OBJECT_NAME":"STARLINK-35608","OBJECT_ID":"2025-263Z","EPOCH":"2026-03-21T13:29:48.702336","MEAN_MOTION":15.27624945,"ECCENTRICITY":0.00017992,"INCLINATION":42.9989,"RA_OF_ASC_NODE":283.7342,"ARG_OF_PERICENTER":294.4701,"MEAN_ANOMALY":65.5963,"EPHEMERIS_TYPE":0,"CLASSIFICATION_TYPE":"U","NORAD_CAT_ID":66508,"ELEMENT_SET_NO":999,"REV_AT_EPOCH":2071,"BSTAR":0.0013032014,"MEAN_MOTION_DOT":0.00035823,"MEAN_MOTION_DDOT":0},{"OBJECT_NAME":"STARLINK-35598","OBJECT_ID":"2025-263AA","EPOCH":"2026-03-21T14:03:07.281216","MEAN_MOTION":15.27612462,"ECCENTRICITY":7.597e-5,"INCLINATION":42.998,"RA_OF_ASC_NODE":283.9073,"ARG_OF_PERICENTER":281.9413,"MEAN_ANOMALY":78.1354,"EPHEMERIS_TYPE":0,"CLASSIFICATION_TYPE":"U","NORAD_CAT_ID":66509,"ELEMENT_SET_NO":999,"REV_AT_EPOCH":2071,"BSTAR":0.0010325983,"MEAN_MOTION_DOT":0.0002829,"MEAN_MOTION_DDOT":0},{"OBJECT_NAME":"STARLINK-35600","OBJECT_ID":"2025-263AB","EPOCH":"2026-03-21T13:57:35.501760","MEAN_MOTION":15.27621959,"ECCENTRICITY":0.00013013,"INCLINATION":42.9993,"RA_OF_ASC_NODE":283.878,"ARG_OF_PERICENTER":266.2895,"MEAN_ANOMALY":93.7808,"EPHEMERIS_TYPE":0,"CLASSIFICATION_TYPE":"U","NORAD_CAT_ID":66510,"ELEMENT_SET_NO":999,"REV_AT_EPOCH":2071,"BSTAR":0.00091237459,"MEAN_MOTION_DOT":0.00024962,"MEAN_MOTION_DDOT":0}]
